GSAT0101 (GALILEO-PFM)  
1 37846U 11060A   24263.57681947 -.00000095  00000+0  00000+0 0  9993
2 37846  57.1260 358.9843 0000482  68.5355 291.5007  1.70475637 80414
GSAT0102 (GALILEO-FM2)  
1 37847U 11060B   24266.50793953 -.00000106  00000+0  00000+0 0  9994
2 37847  57.1263 358.9050 0002297 299.5456 104.8830  1.70475132 80344
GSAT0103 (GALILEO-FM3)  
1 38857U 12055A   24265.37607650  .00000020  00000+0  00000+0 0  9997
2 38857  55.4471 118.9604 0002186 274.4172  85.6521  1.70473637 74200
GSAT0201 (GALILEO 5)    
1 40128U 14050A   24266.10583726 -.00000049  00000+0  00000+0 0  9999
2 40128  49.5595 299.1628 1613606 155.0499 213.7174  1.85519410 66570
GSAT0202 (GALILEO 6)    
1 40129U 14050B   24264.74680586 -.00000046  00000+0  00000+0 0  9997
2 40129  49.5774 298.2957 1612636 155.7926 212.7308  1.85520052 68719
GSAT0203 (GALILEO 7)    
1 40544U 15017A   24263.35584236 -.00000095  00000+0  00000+0 0  9997
2 40544  56.9208 358.9115 0004288 240.2936 119.6947  1.70476103 58367
GSAT0204 (GALILEO 8)    
1 40545U 15017B   24257.74443920 -.00000083  00000+0  00000+0 0  9995
2 40545  56.9278 359.0800 0004297 223.8405 136.1498  1.70475599 21314
GSAT0205 (GALILEO 9)    
1 40889U 15045A   24265.72468928  .00000023  00000+0  00000+0 0  9992
2 40889  55.1790 239.1018 0003651  11.5336 348.4390  1.70473079 56219
GSAT0206 (GALILEO 10)   
1 40890U 15045B   24266.53193257  .00000023  00000+0  00000+0 0  9994
2 40890  55.1779 239.0749 0002138 341.6065  18.3532  1.70473091 56252
GSAT0209 (GALILEO 12)   
1 41174U 15079A   24266.11533135  .00000015  00000+0  00000+0 0  9995
2 41174  55.4667 118.6503 0002687 351.7232   8.3616  1.70473994 53985
GSAT0208 (GALILEO 11)   
1 41175U 15079B   24265.16199660  .00000022  00000+0  00000+0 0  9999
2 41175  55.4646 118.6741 0002219   0.1713 359.9243  1.70473824 54543
GSAT0211 (GALILEO 14)   
1 41549U 16030A   24266.45763498  .00000024  00000+0  00000+0 0  9993
2 41549  55.3265 239.0986 0003508 319.6126  40.3285  1.70473180 51887
GSAT0210 (GALILEO 13)   
1 41550U 16030B   24263.78283875  .00000022  00000+0  00000+0 0  9992
2 41550  55.3267 239.1706 0003814 244.5426 115.3776  1.70473601 51832
GSAT0207 (GALILEO 15)   
1 41859U 16069A   24265.82231753  .00000016  00000+0  00000+0 0  9994
2 41859  55.1321 118.6363 0002400 326.3006  33.7752  1.70473891 48605
GSAT0212 (GALILEO 16)   
1 41860U 16069B   24263.91677134  .00000032  00000+0  00000+0 0  9999
2 41860  55.1285 118.6853 0002470  16.0260 344.0860  1.70474096 48822
GSAT0213 (GALILEO 17)   
1 41861U 16069C   24266.04491996  .00000015  00000+0  00000+0 0  9998
2 41861  55.1320 118.6331 0002060 287.0436  73.0234  1.70474512 48720
GSAT0214 (GALILEO 18)   
1 41862U 16069D   24266.19024065  .00000014  00000+0  00000+0 0  9993
2 41862  55.1307 118.6224 0001173 299.7652  60.3118  1.70474152 48855
GSAT0215 (GALILEO 19)   
1 43055U 17079A   24264.33308880  .00000022  00000+0  00000+0 0  9994
2 43055  55.3044 238.9776 0003223 271.3950  88.5281  1.70473839 42166
GSAT0216 (GALILEO 20)   
1 43056U 17079B   24265.79789061  .00000023  00000+0  00000+0 0  9991
2 43056  55.3041 238.9371 0004656 278.3371  81.5746  1.70473988 42209
GSAT0217 (GALILEO 21)   
1 43057U 17079C   24266.01839776  .00000024  00000+0  00000+0 0  9998
2 43057  55.3020 238.9297 0003999 290.8313  69.0911  1.70473944 42193
GSAT0218 (GALILEO 22)   
1 43058U 17079D   24264.47869779  .00000022  00000+0  00000+0 0  9991
2 43058  55.3034 238.9696 0005143 274.7502  85.1513  1.70473912 42198
GSAT0221 (GALILEO 25)   
1 43564U 18060A   24263.20678009 -.00000094  00000+0  00000+0 0  9998
2 43564  57.3011 358.9397 0004321 260.8719  99.1100  1.70476022 38323
GSAT0222 (GALILEO 26)   
1 43565U 18060B   24266.35836846 -.00000105  00000+0  00000+0 0  9996
2 43565  57.3046 358.8567 0003796 223.5261 136.4766  1.70475861 38427
GSAT0219 (GALILEO 23)   
1 43566U 18060C   24264.23376197 -.00000097  00000+0  00000+0 0  9990
2 43566  57.3036 358.9159 0003040 261.0839  98.9138  1.70475981 38366
GSAT0220 (GALILEO 24)   
1 43567U 18060D   24263.28128190 -.00000094  00000+0  00000+0 0  9990
2 43567  57.3037 358.9417 0003422 258.5290 101.4634  1.70475624 38333
GSAT0223 (GALILEO 27)   
1 49809U 21116A   24256.71034588 -.00000082  00000+0  00000+0 0  9995
2 49809  57.2947 359.0132 0003510 196.6544 181.1021  1.70476198 17233
GSAT0224 (GALILEO 28)   
1 49810U 21116B   24264.22831875 -.00000097  00000+0  00000+0 0  9992
2 49810  57.2948 358.8083 0003062 198.3612 225.8607  1.70475927 17386
GSAT0225 (GALILEO 29)   
1 59598U 24079A   24265.31183633  .00000019  00000+0  00000+0 0  9993
2 59598  54.7474 118.8182 0001965 163.3695 196.6375  1.70474156  2501
GSAT0227 (GALILEO 30)   
1 59600U 24079C   24264.32214347  .00000028  00000+0  00000+0 0  9994
2 59600  54.7415 118.8467 0003451 107.3834 252.7559  1.70474189  2549
